COSMOS 2433 (720)       
1 32275U 07052A   22293.34512553 -.00000067  00000+0  00000+0 0  9991
2 32275  66.0736   0.5285 0004233 227.0064  86.5775  2.13104202116621
COSMOS 2432 (719)       
1 32276U 07052B   22293.45137080 -.00000067  00000+0  00000+0 0  9992
2 32276  66.0878   0.6287 0008647 317.2436  25.8066  2.13103308116625
COSMOS 2434 (721)       
1 32393U 07065A   22293.20550954 -.00000004  00000+0  00000+0 0  9999
2 32393  64.3677 237.1688 0000719  80.8969  15.5686  2.13103077115335
COSMOS 2436 (723)       
1 32395U 07065C   22293.49122262 -.00000005  00000+0  00000+0 0  9990
2 32395  64.3763 237.2173 0015636 354.6376  96.7997  2.13102811115275
COSMOS 2456 (730)       
1 36111U 09070A   22293.33991257  .00000096  00000+0  00000+0 0  9998
2 36111  64.3857 116.7654 0001708 343.6969  19.7287  2.13099190100002
COSMOS 2457 (733)       
1 36112U 09070B   22293.61462296  .00000097  00000+0  00000+0 0  9997
2 36112  64.3680 116.6288 0006491 149.0562 193.3950  2.13101385100006
COSMOS 2461 (735)       
1 36401U 10007B   22293.56476257 -.00000065  00000+0  00000+0 0  9992
2 36401  65.9564 359.3415 0018265   4.7771 334.5464  2.13103627 98358
COSMOS 2460 (732)       
1 36402U 10007C   22293.06953284 -.00000068  00000+0  00000+0 0  9991
2 36402  65.9444 359.3057 0001683 194.2251  74.8183  2.13106410 98346
COSMOS 2464 (736)       
1 37139U 10041C   22293.46687773 -.00000006  00000+0  00000+0 0  9990
2 37139  63.9671 236.1723 0029092   6.9630 147.3308  2.13100800 94416
COSMOS 2476 (744)       
1 37867U 11064A   22292.55123366  .00000090  00000+0  00000+0 0  9998
2 37867  64.6721 118.1963 0020487 230.9217 154.0101  2.13101789 85336
COSMOS 2477 (745)       
1 37868U 11064B   22293.22170951  .00000096  00000+0  00000+0 0  9992
2 37868  64.6793 118.2400 0017762 231.0337 126.3206  2.13101623 85290
COSMOS 2475 (743)       
1 37869U 11064C   22293.05689786  .00000095  00000+0  00000+0 0  9994
2 37869  64.6864 118.2550 0021459 251.1095 297.9718  2.13101947 85302
COSMOS 2485 (747)       
1 39155U 13019A   22293.18793355  .00000096  00000+0  00000+0 0  9999
2 39155  64.8338 118.6299 0021035 226.7839 331.0102  2.13101889 73813
COSMOS 2492 (754)       
1 39620U 14012A   22293.25908858 -.00000067  00000+0  00000+0 0  9993
2 39620  65.8303 358.9630 0012259 314.0317 332.7035  2.13103484 66763
COSMOS 2500 (755)       
1 40001U 14032A   22293.51415940 -.00000065  00000+0  00000+0 0  9992
2 40001  65.7691 358.8065 0008140 202.4328 138.2860  2.13102312 64980
COSMOS 2501 (702K)      
1 40315U 14075A   22293.45381409 -.00000006  00000+0  00000+0 0  9997
2 40315  63.6737 236.7942 0018842 211.6827 251.3570  2.13101334 61390
COSMOS 2514 (751)       
1 41330U 16008A   22292.83008767 -.00000069  00000+0  00000+0 0  9996
2 41330  65.5678 358.4909 0012133 213.4291 146.5543  2.13102732 52141
COSMOS 2516 (753)       
1 41554U 16032A   22292.01493272  .00000000  00000+0  00000+0 0  9994
2 41554  63.9002 237.1563 0014619 215.8066 144.0908  2.13106466 49735
COSMOS 2522 (752)       
1 42939U 17055A   22293.24779080 -.00000004  00000+0  00000+0 0  9993
2 42939  64.1335 237.5438 0009219 246.4872 193.9710  2.13102050 39519
COSMOS 2527 (756)       
1 43508U 18053A   22293.31145080  .00000098  00000+0  00000+0 0  9992
2 43508  64.9967 118.6526 0007303 214.2486 307.1000  2.13102446 33800
COSMOS 2529 (757)       
1 43687U 18086A   22293.30752103 -.00000004  00000+0  00000+0 0  9993
2 43687  64.3484 237.8918 0011151 265.9633 175.8326  2.13102091 30824
COSMOS 2534 (758)       
1 44299U 19030A   22293.26186824 -.00000004  00000+0  00000+0 0  9999
2 44299  64.4211 237.7900 0013554 284.4307 256.8033  2.13101793 26464
COSMOS 2544 (759)       
1 44850U 19088A   22293.15457826  .00000097  00000+0  16595+1 0  9994
2 44850  64.9843 118.5084 0010544 250.5122 193.8561  2.13102469 22235
COSMOS 2545 (760)       
1 45358U 20018A   22293.12875469 -.00000069  00000+0  00000+0 0  9990
2 45358  64.9069 358.9860 0010450 240.0203  33.8575  2.13102672 20187
COSMOS 2547 (705K)      
1 46805U 20075A   22293.19454958 -.00000004  00000+0  00000+0 0  9993
2 46805  64.6461 237.2537 0007890 247.1317 290.5757  2.13102939 15438
COSMOS 2557 (706K)      
1 52984U 22075A   22293.05804516 -.00000072  00000+0  10000-3 0  9994
2 52984  64.8109   1.1846 0012286 276.4318  34.2008  2.13101891  2227
